{
 "Header_SearchResultsPage" : "Find a Dentist",
 "Header_InvalidAddress"    : "Invalid Address",
 "ZipCode"                  : "94103",
 "Distance"                 : "5 miles",
 "Language1"                : "English",
 "Language2"                : "Spanish",
 "Language3"                : "Chinese",
 "Language4"                : "Bosnian",

 "Location_ZipCode"         : {
 "Location1"                : {
 "ZIPCode"                  : "94949",
 "ExecutionFlag"            : true
    },
 "Location2"                : {
 "ZIPCode"                  : "94952",
 "ExecutionFlag"            : true
    },
 "Location3"                : {
 "ZIPCode"                  : "96002",
 "ExecutionFlag"            : true
    },
 "Location4"                : {
 "ZIPCode"                  : "92244",
 "ExecutionFlag"            : true
    },
 "Location5"                : {
 "ZIPCode"                  : "94105",
 "ExecutionFlag"            : true
    },
 "Location6"                : {
 "ZIPCode"                  : "94111",
 "ExecutionFlag"            : true
    },
 "Location7"                : {
 "ZIPCode"                  : "90001",
 "ExecutionFlag"            : true
    }
    
 },

 "Location_City"            : {
 "Location1"                : {
 "City"                     : "Sonoma",
 "ExecutionFlag"            : true
    },
 "Location2"                : {
 "City"                     : "Marin",
 "ExecutionFlag"            : true
    },
 "Location3"                : {
 "City"                     : "San Rafael",
 "ExecutionFlag"            : true
    },
 "Location4"                : {
 "City"                     : "Santa Rosa",
 "ExecutionFlag"            : true
    },
 "Location5"                : {
 "City"                     : "Placer County",
 "ExecutionFlag"            : true
    },
 "Location6"                : {
 "City"                     : "Sacramento",
 "ExecutionFlag"            : true
    }
         
 }

      

}